GLOBALSTAR M024         
1 25883U 99043A   25138.83822146 -.00000021  00000+0  15607-2 0  9998
2 25883  52.0012  86.8405 0001784  43.4872 356.9471 11.10167370111631
GLOBALSTAR M027         
1 25884U 99043B   25138.80790939 -.00000095  00000+0 -11755-2 0  9992
2 25884  52.0169 164.0629 0021525 303.3549  56.5184 11.04372356137992
GLOBALSTAR M054         
1 25885U 99043C   25138.93566334  .00000083  00000+0  39278-2 0  9992
2 25885  52.0151 295.9881 0006632 122.4070  50.2451 11.39215577115712
GLOBALSTAR M053         
1 25886U 99043D   25138.75923191 -.00000047  00000+0  62370-3 0  9992
2 25886  51.9979 241.8710 0002909  40.9508 129.7914 11.27665283116125
GLOBALSTAR M058         
1 25907U 99049A   25138.82173972 -.00000029  00000+0  74091-3 0  9997
2 25907  51.9913 187.5896 0002168 206.3680 153.7044 11.93199685538034
GLOBALSTAR M050         
1 25908U 99049B   25138.93537649 -.00000065  00000+0  26676-3 0  9991
2 25908  51.9971 197.1473 0008815 332.3357 199.1969 12.07454759144656
GLOBALSTAR M033         
1 25909U 99049C   25138.78075864  .00000017  00000+0  10420-2 0  9996
2 25909  51.9916  71.4302 0013158 201.2249 158.8054 12.20292305532156
GLOBALSTAR M055         
1 25910U 99049D   25138.58222442 -.00000067  00000+0  23258-3 0  9992
2 25910  52.0016  84.1789 0007365  68.2965 291.8671 12.29427501164645
